      2.10          N: GNSS NAV DATA                        RINEX VERSION / TYPE
fic2rin                                 10/20/2020 00:17:30 PGM / RUN BY / DATE
                                                            END OF HEADER
 7 20 10 20  0  0  0.0-3.969497047365e-04-7.844391802792e-12 0.000000000000e+00
    1.600000000000e+01 6.556250000000e+01 4.600905931914e-09 1.977174785335e+00
    3.330409526825e-06 1.422447175719e-02 1.260079443455e-05 5.153641761780e+03
    1.728000000000e+05-3.762543201447e-07-2.694941533486e+00-1.974403858185e-07
    9.529091474852e-01 1.346250000000e+02-2.361112062983e+00-7.921758544469e-09
   -3.171560679661e-10 1.000000000000e+00 2.128000000000e+03 0.000000000000e+00
    2.400000000000e+00 0.000000000000e+00-1.117587089539e-08 1.600000000000e+01
    1.656000000000e+05 4.000000000000e+00
 4 20 10 20  0  0  0.0-1.469873823225e-04-3.865352482535e-12 0.000000000000e+00
    9.600000000000e+01-2.012500000000e+01 4.899132639968e-09-2.022678796599e+00
   -1.225620508194e-06 8.567242184654e-04 7.206574082375e-06 5.153611291885e+03
    1.728000000000e+05 1.490116119385e-08 2.564332969550e+00 1.862645149231e-09
    9.602749429401e-01 2.430625000000e+02-2.981647191311e+00-8.082836682592e-09
   -3.114415442190e-10 1.000000000000e+00 2.128000000000e+03 0.000000000000e+00
    2.400000000000e+00 0.000000000000e+00-4.190951585770e-09 9.600000000000e+01
    1.656000000000e+05 4.000000000000e+00
 2 20 10 20  0  0  0.0-5.317828617990e-04-4.888534022029e-12 0.000000000000e+00
    7.700000000000e+01-1.110000000000e+02 4.003738200338e-09 2.864765114566e+00
   -5.576759576797e-06 1.992618455552e-02 9.993091225624e-06 5.153806163788e+03
    1.728000000000e+05 2.123415470123e-07 3.657242942734e-01-7.636845111847e-08
    9.610307829725e-01 1.829375000000e+02-1.597901281745e+00-7.442095707444e-09
    5.357366012941e-11 1.000000000000e+00 2.128000000000e+03 0.000000000000e+00
    3.400000000000e+00 0.000000000000e+00-1.769512891769e-08 7.700000000000e+01
    1.656000000000e+05 4.000000000000e+00
 1 20 10 20  0  0  0.0 8.144923485816e-04-2.387423592154e-12 0.000000000000e+00
    4.600000000000e+01-1.134375000000e+02 3.608007430849e-09 2.658666792966e+00
   -5.841255187988e-06 1.009029254783e-02 1.160986721516e-05 5.153703821182e+03
    1.728000000000e+05 2.235174179077e-08 4.449574076792e-01-1.322478055954e-07
    9.821165951326e-01 1.644687500000e+02 8.284566218236e-01-7.477097165395e-09
    1.614352958566e-10 1.000000000000e+00 2.128000000000e+03 0.000000000000e+00
    2.400000000000e+00 0.000000000000e+00 5.122274160385e-09 4.600000000000e+01
    1.656000000000e+05 4.000000000000e+00
 5 20 10 20  0  0  0.0-2.381065860391e-05-9.094947017729e-13 0.000000000000e+00
    7.900000000000e+01 1.190625000000e+01 4.768770066986e-09-7.457676877605e-01
    8.326023817062e-07 6.093314732425e-03 7.770955562592e-06 5.153748401642e+03
    1.728000000000e+05 5.215406417847e-08 1.450482251551e+00 3.725290298462e-08
    9.535626286024e-01 2.246875000000e+02 8.871136242090e-01-8.192126949256e-09
    5.993106779810e-10 1.000000000000e+00 2.128000000000e+03 0.000000000000e+00
    2.400000000000e+00 0.000000000000e+00-1.117587089539e-08 7.900000000000e+01
    1.656000000000e+05 4.000000000000e+00
 3 20 10 20  0  0  0.0-3.308518789709e-04-1.023181539495e-11 0.000000000000e+00
    4.200000000000e+01 5.500000000000e+00 4.514473760239e-09 1.474194528314e+00
    2.328306436539e-07 3.253810340539e-03 7.959082722664e-06 5.153720729828e+03
    1.728000000000e+05-2.793967723846e-08 1.484383710311e+00 4.842877388000e-08
    9.666306739218e-01 2.266562500000e+02 8.939909981306e-01-7.993547249043e-09
    6.050252017282e-10 1.000000000000e+00 2.128000000000e+03 0.000000000000e+00
    2.400000000000e+00 0.000000000000e+00 1.862645149231e-09 4.200000000000e+01
    1.656000000000e+05 4.000000000000e+00
30 20 10 20  0  0  0.0-3.230031579733e-04-6.821210263297e-12 0.000000000000e+00
    4.000000000000e+00 6.062500000000e+01 4.929491047374e-09 1.963840464055e+00
    3.237277269363e-06 4.757197690196e-03 1.199916005135e-05 5.153585432053e+03
    1.728000000000e+05-1.378357410431e-07-2.674475804024e+00 4.656612873077e-08
    9.381702873353e-01 1.374375000000e+02-2.809177353810e+00-8.133910238582e-09
   -3.189418566371e-10 1.000000000000e+00 2.128000000000e+03 0.000000000000e+00
    2.400000000000e+00 0.000000000000e+00 3.725290298462e-09 4.000000000000e+00
    1.656000000000e+05 4.000000000000e+00
29 20 10 20  0  0  0.0-2.190456725657e-04-7.844391802792e-12 0.000000000000e+00
    5.900000000000e+01-8.350000000000e+01 4.074812589443e-09-1.410308458380e+00
   -4.399567842484e-06 1.548944273964e-03 3.466382622719e-06 5.153737922668e+03
    1.728000000000e+05-2.048909664154e-08-5.393091474536e-01-2.980232238770e-08
    9.852695581004e-01 3.245937500000e+02 2.259065521867e+00-8.113195089998e-09
   -3.207276453081e-10 1.000000000000e+00 2.128000000000e+03 0.000000000000e+00
    3.400000000000e+00 0.000000000000e+00-1.024454832077e-08 5.900000000000e+01
    1.656000000000e+05 4.000000000000e+00
16 20 10 20  0  0  0.0-2.247411757708e-04-5.229594535194e-12 0.000000000000e+00
    3.400000000000e+01 1.063750000000e+02 4.389825711004e-09-5.568278269826e-01
    5.597248673439e-06 1.163559139241e-02 3.086403012276e-06 5.153592851639e+03
    1.728000000000e+05 1.341104507446e-07-1.567763745893e+00 1.452863216400e-07
    9.762932536871e-01 3.279062500000e+02 6.277532348877e-01-8.421422214609e-09
    1.253623647028e-10 1.000000000000e+00 2.128000000000e+03 0.000000000000e+00
    2.400000000000e+00 0.000000000000e+00-1.071020960808e-08 3.400000000000e+01
    1.656000000000e+05 4.000000000000e+00
 9 20 10 20  0  0  0.0-3.024381585419e-04-5.115907697473e-12 0.000000000000e+00
    6.200000000000e+01-2.118750000000e+01 5.151643158044e-09-1.014766300724e+00
   -1.097097992897e-06 1.906445133500e-03 6.852671504021e-06 5.153623828888e+03
    1.728000000000e+05 7.450580596924e-09 2.515273569960e+00 2.980232238770e-08
    9.530070240193e-01 2.484375000000e+02 1.754346620356e+00-8.233557246422e-09
   -2.425101015191e-10 1.000000000000e+00 2.128000000000e+03 0.000000000000e+00
    2.400000000000e+00 0.000000000000e+00 1.396983861923e-09 6.200000000000e+01
    1.656000000000e+05 4.000000000000e+00
10 20 10 20  0  0  0.0-4.839189350605e-04-9.436007530894e-12 0.000000000000e+00
    5.000000000000e+01 1.784375000000e+01 4.588048253483e-09 6.688163286447e-01
    9.424984455109e-07 6.031733006239e-03 7.769092917442e-06 5.153662963867e+03
    1.728000000000e+05-6.146728992462e-08 1.481403738869e+00 1.732259988785e-07
    9.665519469854e-01 2.336875000000e+02-2.663216692019e+00-8.057478483464e-09
    5.628805890930e-10 1.000000000000e+00 2.128000000000e+03 0.000000000000e+00
    2.400000000000e+00 0.000000000000e+00 2.328306436539e-09 5.000000000000e+01
    1.656000000000e+05 4.000000000000e+00
11 20 10 20  0  0  0.0-1.322198659182e-04 1.057287590811e-11 0.000000000000e+00
    3.000000000000e+01-1.457812500000e+02 5.301649406407e-09 2.111839125799e+00
   -7.305294275284e-06 1.575448468793e-02 6.327405571938e-06 5.153726478577e+03
    1.728000000000e+05 2.104789018631e-07-3.877272287954e-02 1.601874828339e-07
    9.139462876799e-01 2.299062500000e+02 2.058126897704e+00-8.334990042934e-09
   -3.453715289676e-10 1.000000000000e+00 2.128000000000e+03 0.000000000000e+00
    2.400000000000e+00 0.000000000000e+00-1.210719347000e-08 3.000000000000e+01
    1.656000000000e+05 4.000000000000e+00
12 20 10 20  0  0  0.0 5.180295556784e-05-5.115907697473e-12 0.000000000000e+00
    2.500000000000e+01 9.718750000000e+01 4.331251842596e-09 1.294523343442e+00
    4.950910806656e-06 7.936764392070e-03 4.079192876816e-06 5.153619598389e+03
    1.728000000000e+05-2.253800630569e-07-1.586609094626e+00 2.048909664154e-08
    9.761241359683e-01 3.094062500000e+02 1.165681776811e+00-8.276416174526e-09
    1.242908915002e-10 1.000000000000e+00 2.128000000000e+03 0.000000000000e+00
    2.400000000000e+00 0.000000000000e+00-1.210719347000e-08 2.500000000000e+01
    1.656000000000e+05 4.000000000000e+00
 8 20 10 20  0  0  0.0-5.203997716308e-05-1.364242052659e-12 0.000000000000e+00
    6.500000000000e+01-7.703125000000e+01 4.488401245642e-09-1.319699531605e+00
   -3.924593329430e-06 5.595000111498e-03 2.371147274971e-06 5.153736558914e+03
    1.728000000000e+05-8.381903171539e-08-6.260923781406e-01-6.891787052155e-08
    9.689819314497e-01 3.394375000000e+02-6.678198064041e-02-8.389992334000e-09
   -2.585821995580e-10 1.000000000000e+00 2.128000000000e+03 0.000000000000e+00
    3.400000000000e+00 0.000000000000e+00 5.122274160385e-09 6.500000000000e+01
    1.656000000000e+05 4.000000000000e+00
 6 20 10 20  0  0  0.0-3.342172130942e-04-2.273736754432e-12 0.000000000000e+00
    1.810000000000e+02-9.715625000000e+01 3.687296447840e-09 3.067913652038e+00
   -4.937872290611e-06 1.875049667433e-03 1.050159335136e-05 5.153640129089e+03
    1.728000000000e+05-1.117587089539e-08 4.367122624072e-01-6.519258022308e-08
    9.816427354859e-01 1.900937500000e+02-1.156512795846e+00-7.538528295677e-09
    1.125046862718e-10 1.000000000000e+00 2.128000000000e+03 0.000000000000e+00
    2.400000000000e+00 0.000000000000e+00 4.190951585770e-09 1.810000000000e+02
    1.656000000000e+05 4.000000000000e+00
25 20 10 20  0  0  0.0 8.079688996077e-06 6.025402399246e-12 0.000000000000e+00
    2.900000000000e+01 1.071562500000e+02 4.639836124941e-09 1.023484492260e+00
    5.668029189110e-06 9.212776902132e-03 4.455447196960e-06 5.153726505280e+03
    1.728000000000e+05-1.061707735062e-07-1.657402234256e+00 1.415610313416e-07
    9.634740068454e-01 2.946250000000e+02 9.291597008997e-01-8.469638508726e-09
    7.178870457341e-11 1.000000000000e+00 2.128000000000e+03 0.000000000000e+00
    2.400000000000e+00 0.000000000000e+00 5.587935447693e-09 2.900000000000e+01
    1.656000000000e+05 4.000000000000e+00
